CCSDS_OMM_VERS = 2.0
CREATION_DATE  = 
ORIGINATOR     = 

OBJECT_NAME    = UNKNOWN
OBJECT_ID      = 
CENTER_NAME    = EARTH
REF_FRAME      = TEME
TIME_SYSTEM    = UTC
MEAN_ELEMENT_THEORY = SGP/SGP4

EPOCH          = 2026-03-19T00:46:52.097088
MEAN_MOTION    = 11.49827285
ECCENTRICITY   = .07620154
INCLINATION    = 102.2955
RA_OF_ASC_NODE = 356.6815
ARG_OF_PERICENTER = 13.9115
MEAN_ANOMALY   = 348.1683

EPHEMERIS_TYPE = 0
CLASSIFICATION_TYPE = U
NORAD_CAT_ID   = 270251
ELEMENT_SET_NO = 999
REV_AT_EPOCH   = 25448
BSTAR          = .50556793E-1
MEAN_MOTION_DOT = .4446E-4
MEAN_MOTION_DDOT = 0

CCSDS_OMM_VERS = 2.0
CREATION_DATE  = 
ORIGINATOR     = 

OBJECT_NAME    = UNKNOWN
OBJECT_ID      = 
CENTER_NAME    = EARTH
REF_FRAME      = TEME
TIME_SYSTEM    = UTC
MEAN_ELEMENT_THEORY = SGP/SGP4

EPOCH          = 2026-03-15T21:55:41.934720
MEAN_MOTION    = 12.62401872
ECCENTRICITY   = .00010439
INCLINATION    = 51.9800
RA_OF_ASC_NODE = 159.4143
ARG_OF_PERICENTER = 130.4757
MEAN_ANOMALY   = 229.6201

EPHEMERIS_TYPE = 0
CLASSIFICATION_TYPE = U
NORAD_CAT_ID   = 270252
ELEMENT_SET_NO = 999
REV_AT_EPOCH   = 28076
BSTAR          = .99630904E-4
MEAN_MOTION_DOT = -.86E-6
MEAN_MOTION_DDOT = 0

CCSDS_OMM_VERS = 2.0
CREATION_DATE  = 
ORIGINATOR     = 

OBJECT_NAME    = UNKNOWN
OBJECT_ID      = 
CENTER_NAME    = EARTH
REF_FRAME      = TEME
TIME_SYSTEM    = UTC
MEAN_ELEMENT_THEORY = SGP/SGP4

EPOCH          = 2026-03-18T12:09:20.084544
MEAN_MOTION    = 13.00279378
ECCENTRICITY   = .00347399
INCLINATION    = 90.2452
RA_OF_ASC_NODE = 4.8201
ARG_OF_PERICENTER = 109.7026
MEAN_ANOMALY   = 250.7849

EPHEMERIS_TYPE = 0
CLASSIFICATION_TYPE = U
NORAD_CAT_ID   = 270253
ELEMENT_SET_NO = 999
REV_AT_EPOCH   = 28766
BSTAR          = -.10507039E-2
MEAN_MOTION_DOT = -.31E-5
MEAN_MOTION_DDOT = 0

CCSDS_OMM_VERS = 2.0
CREATION_DATE  = 
ORIGINATOR     = 

OBJECT_NAME    = UNKNOWN
OBJECT_ID      = 
CENTER_NAME    = EARTH
REF_FRAME      = TEME
TIME_SYSTEM    = UTC
MEAN_ELEMENT_THEORY = SGP/SGP4

EPOCH          = 2026-03-19T00:51:00.635328
MEAN_MOTION    = 12.93282453
ECCENTRICITY   = .00338261
INCLINATION    = 90.2522
RA_OF_ASC_NODE = 5.5798
ARG_OF_PERICENTER = 145.1967
MEAN_ANOMALY   = 215.1373

EPHEMERIS_TYPE = 0
CLASSIFICATION_TYPE = U
NORAD_CAT_ID   = 270256
ELEMENT_SET_NO = 999
REV_AT_EPOCH   = 28736
BSTAR          = .27003497E-3
MEAN_MOTION_DOT = .82E-6
MEAN_MOTION_DDOT = 0

CCSDS_OMM_VERS = 2.0
CREATION_DATE  = 
ORIGINATOR     = 

OBJECT_NAME    = UNKNOWN
OBJECT_ID      = 
CENTER_NAME    = EARTH
REF_FRAME      = TEME
TIME_SYSTEM    = UTC
MEAN_ELEMENT_THEORY = SGP/SGP4

EPOCH          = 2026-03-18T05:12:29.916288
MEAN_MOTION    = 12.33959617
ECCENTRICITY   = .02904621
INCLINATION    = 82.4010
RA_OF_ASC_NODE = 255.8169
ARG_OF_PERICENTER = 172.6432
MEAN_ANOMALY   = 187.9047

EPHEMERIS_TYPE = 0
CLASSIFICATION_TYPE = U
NORAD_CAT_ID   = 270258
ELEMENT_SET_NO = 999
REV_AT_EPOCH   = 27187
BSTAR          = .30755036E-2
MEAN_MOTION_DOT = .448E-5
MEAN_MOTION_DDOT = 0

CCSDS_OMM_VERS = 2.0
CREATION_DATE  = 
ORIGINATOR     = 

OBJECT_NAME    = UNKNOWN
OBJECT_ID      = 
CENTER_NAME    = EARTH
REF_FRAME      = TEME
TIME_SYSTEM    = UTC
MEAN_ELEMENT_THEORY = SGP/SGP4

EPOCH          = 2026-03-19T16:21:43.083360
MEAN_MOTION    = 12.09775554
ECCENTRICITY   = .09010116
INCLINATION    = 83.3540
RA_OF_ASC_NODE = 221.6382
ARG_OF_PERICENTER = 277.1914
MEAN_ANOMALY   = 72.7693

EPHEMERIS_TYPE = 0
CLASSIFICATION_TYPE = U
NORAD_CAT_ID   = 270260
ELEMENT_SET_NO = 999
REV_AT_EPOCH   = 26776
BSTAR          = .70275812E-2
MEAN_MOTION_DOT = .223E-4
MEAN_MOTION_DDOT = 0

CCSDS_OMM_VERS = 2.0
CREATION_DATE  = 
ORIGINATOR     = 

OBJECT_NAME    = UNKNOWN
OBJECT_ID      = 
CENTER_NAME    = EARTH
REF_FRAME      = TEME
TIME_SYSTEM    = UTC
MEAN_ELEMENT_THEORY = SGP/SGP4

EPOCH          = 2026-03-20T11:10:13.157184
MEAN_MOTION    = 12.83409759
ECCENTRICITY   = .03830527
INCLINATION    = 63.2063
RA_OF_ASC_NODE = 144.2528
ARG_OF_PERICENTER = 24.1548
MEAN_ANOMALY   = 337.6890

EPHEMERIS_TYPE = 0
CLASSIFICATION_TYPE = U
NORAD_CAT_ID   = 270261
ELEMENT_SET_NO = 999
REV_AT_EPOCH   = 28278
BSTAR          = .35607758E-3
MEAN_MOTION_DOT = .39E-6
MEAN_MOTION_DDOT = 0

CCSDS_OMM_VERS = 2.0
CREATION_DATE  = 
ORIGINATOR     = 

OBJECT_NAME    = UNKNOWN
OBJECT_ID      = 
CENTER_NAME    = EARTH
REF_FRAME      = TEME
TIME_SYSTEM    = UTC
MEAN_ELEMENT_THEORY = SGP/SGP4

EPOCH          = 2026-03-21T01:41:45.689280
MEAN_MOTION    = 12.95615248
ECCENTRICITY   = .00344591
INCLINATION    = 90.2514
RA_OF_ASC_NODE = 7.2991
ARG_OF_PERICENTER = 43.5692
MEAN_ANOMALY   = 316.8140

EPHEMERIS_TYPE = 0
CLASSIFICATION_TYPE = U
NORAD_CAT_ID   = 270262
ELEMENT_SET_NO = 999
REV_AT_EPOCH   = 28486
BSTAR          = .74415747E-3
MEAN_MOTION_DOT = .218E-5
MEAN_MOTION_DDOT = 0

CCSDS_OMM_VERS = 2.0
CREATION_DATE  = 
ORIGINATOR     = 

OBJECT_NAME    = UNKNOWN
OBJECT_ID      = 
CENTER_NAME    = EARTH
REF_FRAME      = TEME
TIME_SYSTEM    = UTC
MEAN_ELEMENT_THEORY = SGP/SGP4

EPOCH          = 2026-03-18T01:23:09.330432
MEAN_MOTION    = 13.15591731
ECCENTRICITY   = .00197279
INCLINATION    = 82.5485
RA_OF_ASC_NODE = 209.3956
ARG_OF_PERICENTER = 141.8381
MEAN_ANOMALY   = 218.4142

EPHEMERIS_TYPE = 0
CLASSIFICATION_TYPE = U
NORAD_CAT_ID   = 270264
ELEMENT_SET_NO = 999
REV_AT_EPOCH   = 28867
BSTAR          = .12132561E-2
MEAN_MOTION_DOT = .47E-5
MEAN_MOTION_DDOT = 0

CCSDS_OMM_VERS = 2.0
CREATION_DATE  = 
ORIGINATOR     = 

OBJECT_NAME    = UNKNOWN
OBJECT_ID      = 
CENTER_NAME    = EARTH
REF_FRAME      = TEME
TIME_SYSTEM    = UTC
MEAN_ELEMENT_THEORY = SGP/SGP4

EPOCH          = 2026-03-19T14:49:35.749632
MEAN_MOTION    = 12.57036289
ECCENTRICITY   = .01447413
INCLINATION    = 82.4185
RA_OF_ASC_NODE = 200.8436
ARG_OF_PERICENTER = 155.0323
MEAN_ANOMALY   = 205.7858

EPHEMERIS_TYPE = 0
CLASSIFICATION_TYPE = U
NORAD_CAT_ID   = 270266
ELEMENT_SET_NO = 999
REV_AT_EPOCH   = 27442
BSTAR          = .22959285E-1
MEAN_MOTION_DOT = .3994E-4
MEAN_MOTION_DDOT = 0

CCSDS_OMM_VERS = 2.0
CREATION_DATE  = 
ORIGINATOR     = 

OBJECT_NAME    = UNKNOWN
OBJECT_ID      = 
CENTER_NAME    = EARTH
REF_FRAME      = TEME
TIME_SYSTEM    = UTC
MEAN_ELEMENT_THEORY = SGP/SGP4

EPOCH          = 2026-03-21T01:46:04.764864
MEAN_MOTION    = 12.96387814
ECCENTRICITY   = .00298156
INCLINATION    = 90.2446
RA_OF_ASC_NODE = 4.7090
ARG_OF_PERICENTER = 6.6584
MEAN_ANOMALY   = 353.4927

EPHEMERIS_TYPE = 0
CLASSIFICATION_TYPE = U
NORAD_CAT_ID   = 270267
ELEMENT_SET_NO = 999
REV_AT_EPOCH   = 28513
BSTAR          = .80940149E-3
MEAN_MOTION_DOT = .239E-5
MEAN_MOTION_DDOT = 0

CCSDS_OMM_VERS = 2.0
CREATION_DATE  = 
ORIGINATOR     = 

OBJECT_NAME    = UNKNOWN
OBJECT_ID      = 
CENTER_NAME    = EARTH
REF_FRAME      = TEME
TIME_SYSTEM    = UTC
MEAN_ELEMENT_THEORY = SGP/SGP4

EPOCH          = 2026-03-07T12:45:02.816640
MEAN_MOTION    = 12.98388298
ECCENTRICITY   = .00291302
INCLINATION    = 90.2480
RA_OF_ASC_NODE = 6.5273
ARG_OF_PERICENTER = 327.2014
MEAN_ANOMALY   = 32.7298

EPHEMERIS_TYPE = 0
CLASSIFICATION_TYPE = U
NORAD_CAT_ID   = 270268
ELEMENT_SET_NO = 999
REV_AT_EPOCH   = 28348
BSTAR          = .1301745E-2
MEAN_MOTION_DOT = .391E-5
MEAN_MOTION_DDOT = 0

CCSDS_OMM_VERS = 2.0
CREATION_DATE  = 
ORIGINATOR     = 

OBJECT_NAME    = UNKNOWN
OBJECT_ID      = 
CENTER_NAME    = EARTH
REF_FRAME      = TEME
TIME_SYSTEM    = UTC
MEAN_ELEMENT_THEORY = SGP/SGP4

EPOCH          = 2026-03-19T12:25:08.823936
MEAN_MOTION    = 13.30559267
ECCENTRICITY   = .00842723
INCLINATION    = 82.5879
RA_OF_ASC_NODE = 172.7728
ARG_OF_PERICENTER = 183.0246
MEAN_ANOMALY   = 177.0386

EPHEMERIS_TYPE = 0
CLASSIFICATION_TYPE = U
NORAD_CAT_ID   = 270269
ELEMENT_SET_NO = 999
REV_AT_EPOCH   = 29171
BSTAR          = .51632598E-3
MEAN_MOTION_DOT = .261E-5
MEAN_MOTION_DDOT = 0

CCSDS_OMM_VERS = 2.0
CREATION_DATE  = 
ORIGINATOR     = 

OBJECT_NAME    = UNKNOWN
OBJECT_ID      = 
CENTER_NAME    = EARTH
REF_FRAME      = TEME
TIME_SYSTEM    = UTC
MEAN_ELEMENT_THEORY = SGP/SGP4

EPOCH          = 2026-03-17T12:22:17.565312
MEAN_MOTION    = 12.98356223
ECCENTRICITY   = .00296483
INCLINATION    = 90.2545
RA_OF_ASC_NODE = 10.2808
ARG_OF_PERICENTER = 276.9655
MEAN_ANOMALY   = 82.8094

EPHEMERIS_TYPE = 0
CLASSIFICATION_TYPE = U
NORAD_CAT_ID   = 270274
ELEMENT_SET_NO = 999
REV_AT_EPOCH   = 28435
BSTAR          = .32983633E-4
MEAN_MOTION_DOT = .17E-6
MEAN_MOTION_DDOT = 0

CCSDS_OMM_VERS = 2.0
CREATION_DATE  = 
ORIGINATOR     = 

OBJECT_NAME    = UNKNOWN
OBJECT_ID      = 
CENTER_NAME    = EARTH
REF_FRAME      = TEME
TIME_SYSTEM    = UTC
MEAN_ELEMENT_THEORY = SGP/SGP4

EPOCH          = 2026-03-18T00:08:27.414240
MEAN_MOTION    = 13.93246475
ECCENTRICITY   = .02952928
INCLINATION    = 86.4364
RA_OF_ASC_NODE = 348.0613
ARG_OF_PERICENTER = 270.3424
MEAN_ANOMALY   = 86.3921

EPHEMERIS_TYPE = 0
CLASSIFICATION_TYPE = U
NORAD_CAT_ID   = 270275
ELEMENT_SET_NO = 999
REV_AT_EPOCH   = 3073
BSTAR          = .29043872E-2
MEAN_MOTION_DOT = .5443E-4
MEAN_MOTION_DDOT = 0

CCSDS_OMM_VERS = 2.0
CREATION_DATE  = 
ORIGINATOR     = 

OBJECT_NAME    = UNKNOWN
OBJECT_ID      = 
CENTER_NAME    = EARTH
REF_FRAME      = TEME
TIME_SYSTEM    = UTC
MEAN_ELEMENT_THEORY = SGP/SGP4

EPOCH          = 2026-03-21T12:04:24.699360
MEAN_MOTION    = 12.93760769
ECCENTRICITY   = .00316042
INCLINATION    = 90.2302
RA_OF_ASC_NODE = 2.0107
ARG_OF_PERICENTER = 38.4882
MEAN_ANOMALY   = 321.8483

EPHEMERIS_TYPE = 0
CLASSIFICATION_TYPE = U
NORAD_CAT_ID   = 270279
ELEMENT_SET_NO = 999
REV_AT_EPOCH   = 28251
BSTAR          = -.14229828E-2
MEAN_MOTION_DOT = -.385E-5
MEAN_MOTION_DDOT = 0

